[{"OBJECT_NAME":"STARLINK-3967","OBJECT_ID":"2022-052AQ","EPOCH":"2026-03-09T20:05:21.088896","MEAN_MOTION":15.08845199,"ECCENTRICITY":0.00010801,"INCLINATION":53.2163,"RA_OF_ASC_NODE":268.4577,"ARG_OF_PERICENTER":130.5297,"MEAN_ANOMALY":229.579,"EPHEMERIS_TYPE":0,"CLASSIFICATION_TYPE":"U","NORAD_CAT_ID":52636,"ELEMENT_SET_NO":999,"REV_AT_EPOCH":21101,"BSTAR":-2.534744e-6,"MEAN_MOTION_DOT":-3.28e-6,"MEAN_MOTION_DDOT":0},{"OBJECT_NAME":"JILIN-01 KUANFU 02B 4","OBJECT_ID":"2024-169D","EPOCH":"2026-03-09T23:04:43.463424","MEAN_MOTION":15.0922271,"ECCENTRICITY":0.00080501,"INCLINATION":97.5522,"RA_OF_ASC_NODE":159.355,"ARG_OF_PERICENTER":260.1533,"MEAN_ANOMALY":99.8787,"EPHEMERIS_TYPE":0,"CLASSIFICATION_TYPE":"U","NORAD_CAT_ID":61192,"ELEMENT_SET_NO":999,"REV_AT_EPOCH":8086,"BSTAR":0.00035789888,"MEAN_MOTION_DOT":5.634e-5,"MEAN_MOTION_DDOT":0}]
